{"spkid": "50841727", "covariance": {"epoch": "2460416.5", "elements": [{"sigma": 5.41366778032922e-08, "name": "e", "value": ".3112379700690716", "title": "eccentricity", "units": null, "label": "e"}, {"sigma": 6.76088757979321e-08, "name": "q", "units": "au", "value": ".9091317980069047", "title": "perihelion distance", "label": "q"}, {"label": "tp", "sigma": 1.9678390003364e-05, "name": "tp", "units": "TDB", "value": "2460328.447559479102", "title": "time of perihelion passage"}, {"title": "longitude of the ascending node", "value": "221.9499233210449", "units": "deg", "name": "om", "sigma": 1.70292966056652e-05, "label": "node"}, {"label": "peri", "sigma": 3.04141391290296e-05, "name": "w", "units": "deg", "value": "69.56629402982078", "title": "argument of perihelion"}, {"label": "i", "title": "inclination", "value": "3.318068754307717", "units": "deg", "sigma": 4.92841436340524e-06, "name": "i"}], "data": [["2.930779883577474E-15", "-3.660087378593421E-15", "1.054000843746889E-12", "-8.013826773092656E-13", "1.60044038506093E-12", "-2.483485546161862E-13"], ["-3.660087378593421E-15", "4.570960086660202E-15", "-1.315952998351769E-12", "1.000824320452261E-12", "-1.998501204350264E-12", "3.100676734476588E-13"], ["1.054000843746889E-12", "-1.315952998351769E-12", "3.872390331244966E-10", "-2.741789718008956E-10", "5.689991212902085E-10", "-9.235210678429721E-11"], ["-8.013826773092656E-13", "1.000824320452261E-12", "-2.741789718008956E-10", "2.899969428837199E-10", "-4.950055824422867E-10", "6.816995953247105E-11"], ["1.60044038506093E-12", "-1.998501204350264E-12", "5.689991212902085E-10", "-4.950055824422867E-10", "9.250198589599715E-10", "-1.38633057630684E-10"], ["-2.483485546161862E-13", "3.100676734476588E-13", "-9.235210678429721E-11", "6.816995953247105E-11", "-1.38633057630684E-10", "2.428926813741905E-11"]], "labels": ["e", "q", "tp", "node", "peri", "i"]}, "elements": [{"title": "eccentricity", "value": ".3114635890573625", "units": null, "name": "e", "sigma": "5.4388E-8", "label": "e"}, {"label": "a", "name": "a", "sigma": "6.4586E-9", "units": "au", "title": "semi-major axis", "value": "1.320456575836981"}, {"label": "q", "name": "q", "sigma": "6.7407E-8", "units": "au", "value": ".9091824315323996", "title": "perihelion distance"}, {"label": "i", "title": "inclination; angle with respect to x-y ecliptic plane", "value": "3.330134914122275", "units": "deg", "sigma": "4.889E-6", "name": "i"}, {"label": "node", "name": "om", "sigma": "1.7807E-5", "units": "deg", "title": "longitude of the ascending node", "value": "221.5912378995102"}, {"label": "peri", "title": "argument of perihelion", "value": "69.95678503351647", "units": "deg", "sigma": "3.1371E-5", "name": "w"}, {"label": "M", "title": "mean anomaly", "value": "206.6452782227922", "units": "deg", "sigma": "1.6586E-5", "name": "ma"}, {"name": "tp", "sigma": "2.7257E-5", "value": "2461436.590908862687", "title": "time of perihelion passage", "units": "TDB", "label": "tp"}, {"name": "per", "sigma": "4.0662E-6", "units": "d", "title": "sidereal orbital period", "value": "554.2230862251747", "label": "period"}, {"label": "n", "units": "deg/d", "value": ".6495579288332568", "title": "mean motion", "sigma": "4.7657E-9", "name": "n"}, {"label": "Q", "name": "ad", "sigma": "8.4702E-9", "value": "1.731730720141563", "title": "aphelion distance", "units": "au"}], "epoch": "2461200.5"}